format  = 'OEF2.0'       ! file format
rectype = 'ML'           ! record type (1L/ML)
refsys  = ECLM J2000     ! default reference system
END_OF_HEADER
va_000034
! Equinoctial elements: a, e*sin(LP), e*cos(LP), tan(i/2)*sin(LN), tan(i/2)*cos(LN), mean long.
 EQU   1.4596357598859038E+00   0.285816694949354   0.187497149009873   -0.001113463368636   -0.001969645089925  34.9379175444015
 MJD     57291.958166082 TDT
 MAG  22.961  0.150
! Non-grav parameters: model used, actual number in use, dimension
 LSP   0  0    6
! RMS    7.65404E-05   2.84573E-05   1.92967E-05   1.08878E-07   1.43183E-07   2.21494E-03
! EIG   2.03850E-08   2.27801E-08   5.42989E-08   8.15571E-08   9.40774E-07   9.23807E-05
! WEA   0.83229   0.45164   0.30621  -0.00168  -0.00187   0.09763
 COV   5.858432390266346E-09  2.177958549750022E-09  1.476701791123429E-09
 COV  -8.112711227677416E-12 -9.035641752753597E-12  1.694878991104464E-07
 COV   8.098180393610280E-10  5.488551958284141E-10 -3.016877594266143E-12
 COV  -3.360179759678178E-12  6.302774996488356E-08  3.723620006632571E-10
 COV  -2.043968530573012E-12 -2.276387299783308E-12  4.270313402030130E-08
 COV   1.185441692327999E-14  1.327481127970312E-14 -2.348327313599832E-10
 COV   2.050142108856936E-14 -2.615614670764516E-10  4.905956980701813E-06
 NOR   1.408197803038088E+14  1.719719598813138E+14 -3.661250882286411E+14
 NOR   6.576323193027522E+12  6.643183143753560E+11 -3.887080068871018E+12
 NOR   9.665369258953412E+14 -7.225445243489079E+14 -2.689363061501098E+13
 NOR   1.592617541467343E+12 -1.207038655143773E+13  1.053699133113231E+15
 NOR  -4.549580795544272E+12 -2.069665862546273E+12  1.275923593442712E+13
 NOR   1.900043236234733E+15 -2.184885511664566E+14  2.372143384265277E+11
 NOR   1.776825813568339E+14 -2.638122267043864E+10  1.783082866007172E+11
va_000035
! Equinoctial elements: a, e*sin(LP), e*cos(LP), tan(i/2)*sin(LN), tan(i/2)*cos(LN), mean long.
 EQU   1.4596371366996219E+00   0.285817206819661   0.187497496040160   -0.001113465275353   -0.001969647213647  34.9379573800428
 MJD     57291.958166082 TDT
 MAG  22.961  0.150
! Non-grav parameters: model used, actual number in use, dimension
 LSP   0  0    6
! RMS    7.65406E-05   2.84573E-05   1.92967E-05   1.08878E-07   1.43183E-07   2.21494E-03
! EIG   2.03850E-08   2.27801E-08   5.42989E-08   8.15572E-08   9.40775E-07   9.23808E-05
! WEA   0.83229   0.45164   0.30621  -0.00168  -0.00187   0.09763
 COV   5.858460073059221E-09  2.177964708139643E-09  1.476705546609607E-09
 COV  -8.112729442368039E-12 -9.035650851954059E-12  1.694881773902239E-07
 COV   8.098187925603051E-10  5.488555497992030E-10 -3.016878644200396E-12
 COV  -3.360176769216556E-12  6.302773388041789E-08  3.723621355640447E-10
 COV  -2.043968656733830E-12 -2.276384620938294E-12  4.270311088943928E-08
 COV   1.185441627190798E-14  1.327479595661512E-14 -2.348325348762314E-10
 COV   2.050139999033229E-14 -2.615609244726942E-10  4.905949916667328E-06
 NOR   1.408191005038936E+14  1.719714986685204E+14 -3.661241843456054E+14
 NOR   6.576298930982708E+12  6.643151560735808E+11 -3.887073274677016E+12
 NOR   9.665364626850065E+14 -7.225446359420680E+14 -2.689358668827619E+13
 NOR   1.592623751832310E+12 -1.207039106470128E+13  1.053699255803751E+15
 NOR  -4.549558177160169E+12 -2.069665148851382E+12  1.275924681353152E+13
 NOR   1.900037893799271E+15 -2.184882783127824E+14  2.372139812060507E+11
 NOR   1.776822010897792E+14 -2.638129787672050E+10  1.783085129535847E+11
va_000036
! Equinoctial elements: a, e*sin(LP), e*cos(LP), tan(i/2)*sin(LN), tan(i/2)*cos(LN), mean long.
 EQU   1.4596384781054861E+00   0.285817705525143   0.187497834145056   -0.001113467133031   -0.001969649282744  34.9379961911034
 MJD     57291.958166082 TDT
 MAG  22.961  0.150
! Non-grav parameters: model used, actual number in use, dimension
 LSP   0  0    6
! RMS    7.65408E-05   2.84573E-05   1.92967E-05   1.08878E-07   1.43183E-07   2.21494E-03
! EIG   2.03850E-08   2.27802E-08   5.42990E-08   8.15573E-08   9.40776E-07   9.23810E-05
! WEA   0.83229   0.45164   0.30621  -0.00168  -0.00187   0.09763
 COV   5.858487065519093E-09  2.177970716155598E-09  1.476709210938363E-09
 COV  -8.112747218422843E-12 -9.035659750329356E-12  1.694884491358141E-07
 COV   8.098195293613260E-10  5.488558966813524E-10 -3.016879678204263E-12
 COV  -3.360173868005455E-12  6.302771844100058E-08  3.723622683611348E-10
 COV  -2.043968787155199E-12 -2.276382019355407E-12  4.270308851031982E-08
 COV   1.185441567853501E-14  1.327478107360327E-14 -2.348323443078172E-10
 COV   2.050137948601326E-14 -2.615603967854222E-10  4.905943052330729E-06
 NOR   1.408184381916055E+14  1.719710493199775E+14 -3.661233037140896E+14
 NOR   6.576275293051733E+12  6.643120790178772E+11 -3.887066655255534E+12
 NOR   9.665360113958862E+14 -7.225447446707446E+14 -2.689354389153736E+13
 NOR   1.592629802450536E+12 -1.207039546197971E+13  1.053699375347558E+15
 NOR  -4.549536140595892E+12 -2.069664453529537E+12  1.275925741293452E+13
 NOR   1.900032688792184E+15 -2.184880124775385E+14  2.372136331751656E+11
 NOR   1.776818306047257E+14 -2.638137114861710E+10  1.783087334863321E+11
va_000037
! Equinoctial elements: a, e*sin(LP), e*cos(LP), tan(i/2)*sin(LN), tan(i/2)*cos(LN), mean long.
 EQU   1.4596397862457440E+00   0.285818191862309   0.187498163864574   -0.001113468944635   -0.001969651300524  34.9380340395738
 MJD     57291.958166082 TDT
 MAG  22.961  0.150
! Non-grav parameters: model used, actual number in use, dimension
 LSP   0  0    6
! RMS    7.65409E-05   2.84573E-05   1.92967E-05   1.08878E-07   1.43183E-07   2.21493E-03
! EIG   2.03850E-08   2.27802E-08   5.42990E-08   8.15574E-08   9.40777E-07   9.23811E-05
! WEA   0.83229   0.45164   0.30621  -0.00168  -0.00187   0.09763
 COV   5.858513382112558E-09  2.177976572745628E-09  1.476712782745173E-09
 COV  -8.112764544569021E-12 -9.035668417912999E-12  1.694887139525920E-07
 COV   8.098202469822878E-10  5.488562343457826E-10 -3.016880683182932E-12
 COV  -3.360171034985300E-12  6.302770331388789E-08  3.723623974480297E-10
 COV  -2.043968912050446E-12 -2.276379479745983E-12  4.270306663838020E-08
 COV   1.185441508728073E-14  1.327476654570619E-14 -2.348321582026923E-10
 COV   2.050135947470224E-14 -2.615598818933783E-10  4.905936352750328E-06
 NOR   1.408177923088304E+14  1.719706111178730E+14 -3.661224449272465E+14
 NOR   6.576252241471812E+12  6.643090782927688E+11 -3.887060200032102E+12
 NOR   9.665355713064655E+14 -7.225448507082034E+14 -2.689350215643010E+13
 NOR   1.592635702988375E+12 -1.207039975028842E+13  1.053699491934937E+15
 NOR  -4.549514650644420E+12 -2.069663775470216E+12  1.275926774955769E+13
 NOR   1.900027612898274E+15 -2.184877532359802E+14  2.372132937779294E+11
 NOR   1.776814693097077E+14 -2.638144260318407E+10  1.783089485510685E+11
va_000038
! Equinoctial elements: a, e*sin(LP), e*cos(LP), tan(i/2)*sin(LN), tan(i/2)*cos(LN), mean long.
 EQU   1.4596410630721155E+00   0.285818666556829   0.187498485690702   -0.001113470712870   -0.001969653269995  34.9380709819313
 MJD     57291.958166082 TDT
 MAG  22.961  0.150
! Non-grav parameters: model used, actual number in use, dimension
 LSP   0  0    6
! RMS    7.65411E-05   2.84574E-05   1.92967E-05   1.08878E-07   1.43183E-07   2.21493E-03
! EIG   2.03850E-08   2.27802E-08   5.42990E-08   8.15575E-08   9.40779E-07   9.23812E-05
! WEA   0.83230   0.45164   0.30621  -0.00168  -0.00187   0.09763
 COV   5.858539062348020E-09  2.177982286741237E-09  1.476716267421122E-09
 COV  -8.112781447008882E-12 -9.035676868033129E-12  1.694889722430287E-07
 COV   8.098209465292619E-10  5.488565633197072E-10 -3.016881660768480E-12
 COV  -3.360168266077545E-12  6.302768847927809E-08  3.723625230328145E-10
 COV  -2.043969031693683E-12 -2.276376998418965E-12  4.270304524281785E-08
 COV   1.185441449775989E-14  1.327475235180249E-14 -2.348319762935432E-10
 COV   2.050133992715620E-14 -2.615593790398714E-10  4.905929808145963E-06
 NOR   1.408171618915797E+14  1.719701834081415E+14 -3.661216067033477E+14
 NOR   6.576229741838851E+12  6.643061494191650E+11 -3.887053899372125E+12
 NOR   9.665351417595591E+14 -7.225449542121740E+14 -2.689346142065927E+13
 NOR   1.592641462250583E+12 -1.207040393601903E+13  1.053699605739187E+15
 NOR  -4.549493675234729E+12 -2.069663113658956E+12  1.275927783881656E+13
 NOR   1.900022658541854E+15 -2.184875002013320E+14  2.372129625077161E+11
 NOR   1.776811166656077E+14 -2.638151234703047E+10  1.783091584685806E+11
